[{"OBJECT_NAME":"ONEWEB-0425","OBJECT_ID":"2022-012G","EPOCH":"2025-10-11T04:22:18.374304","MEAN_MOTION":13.10375097,"ECCENTRICITY":0.00015465,"INCLINATION":87.8751,"RA_OF_ASC_NODE":85.9035,"ARG_OF_PERICENTER":78.7612,"MEAN_ANOMALY":281.3689,"EPHEMERIS_TYPE":0,"CLASSIFICATION_TYPE":"U","NORAD_CAT_ID":51628,"ELEMENT_SET_NO":999,"REV_AT_EPOCH":17671,"BSTAR":-0.00187852,"MEAN_MOTION_DOT":-6.43e-6,"MEAN_MOTION_DDOT":0},{"OBJECT_NAME":"ONEWEB-0428","OBJECT_ID":"2022-012H","EPOCH":"2025-10-10T16:53:54.016224","MEAN_MOTION":13.10369599,"ECCENTRICITY":0.00015741,"INCLINATION":87.8746,"RA_OF_ASC_NODE":86.0203,"ARG_OF_PERICENTER":98.9112,"MEAN_ANOMALY":261.2193,"EPHEMERIS_TYPE":0,"CLASSIFICATION_TYPE":"U","NORAD_CAT_ID":51629,"ELEMENT_SET_NO":999,"REV_AT_EPOCH":17661,"BSTAR":-0.0012806512,"MEAN_MOTION_DOT":-4.34e-6,"MEAN_MOTION_DDOT":0},{"OBJECT_NAME":"ONEWEB-0431","OBJECT_ID":"2022-012J","EPOCH":"2025-10-10T21:40:34.289760","MEAN_MOTION":13.10373572,"ECCENTRICITY":0.0002037,"INCLINATION":87.8757,"RA_OF_ASC_NODE":85.9547,"ARG_OF_PERICENTER":107.4592,"MEAN_ANOMALY":252.6758,"EPHEMERIS_TYPE":0,"CLASSIFICATION_TYPE":"U","NORAD_CAT_ID":51630,"ELEMENT_SET_NO":999,"REV_AT_EPOCH":17669,"BSTAR":0.0019712,"MEAN_MOTION_DOT":7.01e-6,"MEAN_MOTION_DDOT":0},{"OBJECT_NAME":"ONEWEB-0434","OBJECT_ID":"2022-012K","EPOCH":"2025-10-11T04:27:05.171328","MEAN_MOTION":13.10376401,"ECCENTRICITY":0.00015235,"INCLINATION":87.8754,"RA_OF_ASC_NODE":85.9388,"ARG_OF_PERICENTER":67.6233,"MEAN_ANOMALY":292.5056,"EPHEMERIS_TYPE":0,"CLASSIFICATION_TYPE":"U","NORAD_CAT_ID":51631,"ELEMENT_SET_NO":999,"REV_AT_EPOCH":17671,"BSTAR":-0.0013918883,"MEAN_MOTION_DOT":-4.73e-6,"MEAN_MOTION_DDOT":0},{"OBJECT_NAME":"ONEWEB-0435","OBJECT_ID":"2022-012L","EPOCH":"2025-10-11T04:39:03.256416","MEAN_MOTION":13.1037674,"ECCENTRICITY":0.00013817,"INCLINATION":87.8752,"RA_OF_ASC_NODE":85.928,"ARG_OF_PERICENTER":104.0412,"MEAN_ANOMALY":256.0869,"EPHEMERIS_TYPE":0,"CLASSIFICATION_TYPE":"U","NORAD_CAT_ID":51632,"ELEMENT_SET_NO":999,"REV_AT_EPOCH":17670,"BSTAR":-6.7668503e-5,"MEAN_MOTION_DOT":-1.1e-7,"MEAN_MOTION_DDOT":0},{"OBJECT_NAME":"ONEWEB-0436","OBJECT_ID":"2022-012M","EPOCH":"2025-10-11T07:02:35.462400","MEAN_MOTION":13.17649623,"ECCENTRICITY":0.00016637,"INCLINATION":87.9099,"RA_OF_ASC_NODE":55.3291,"ARG_OF_PERICENTER":105.8654,"MEAN_ANOMALY":254.2661,"EPHEMERIS_TYPE":0,"CLASSIFICATION_TYPE":"U","NORAD_CAT_ID":51633,"ELEMENT_SET_NO":999,"REV_AT_EPOCH":18090,"BSTAR":0.00024901126,"MEAN_MOTION_DOT":1.1e-6,"MEAN_MOTION_DDOT":0},{"OBJECT_NAME":"ONEWEB-0438","OBJECT_ID":"2022-012N","EPOCH":"2025-10-11T04:15:07.951968","MEAN_MOTION":13.10373579,"ECCENTRICITY":0.00016424,"INCLINATION":87.8744,"RA_OF_ASC_NODE":85.9313,"ARG_OF_PERICENTER":85.2523,"MEAN_ANOMALY":274.8792,"EPHEMERIS_TYPE":0,"CLASSIFICATION_TYPE":"U","NORAD_CAT_ID":51634,"ELEMENT_SET_NO":999,"REV_AT_EPOCH":17673,"BSTAR":-0.00260542,"MEAN_MOTION_DOT":-8.97e-6,"MEAN_MOTION_DDOT":0},{"OBJECT_NAME":"ONEWEB-0439","OBJECT_ID":"2022-012P","EPOCH":"2025-10-10T17:20:11.287104","MEAN_MOTION":13.10374597,"ECCENTRICITY":0.00015469,"INCLINATION":87.875,"RA_OF_ASC_NODE":86.0115,"ARG_OF_PERICENTER":91.6764,"MEAN_ANOMALY":268.454,"EPHEMERIS_TYPE":0,"CLASSIFICATION_TYPE":"U","NORAD_CAT_ID":51635,"ELEMENT_SET_NO":999,"REV_AT_EPOCH":17665,"BSTAR":-0.0019114432,"MEAN_MOTION_DOT":-6.55e-6,"MEAN_MOTION_DDOT":0},{"OBJECT_NAME":"ONEWEB-0442","OBJECT_ID":"2022-012Q","EPOCH":"2025-10-11T06:51:37.291392","MEAN_MOTION":13.17651749,"ECCENTRICITY":0.00019637,"INCLINATION":87.909,"RA_OF_ASC_NODE":55.3832,"ARG_OF_PERICENTER":79.3204,"MEAN_ANOMALY":280.8149,"EPHEMERIS_TYPE":0,"CLASSIFICATION_TYPE":"U","NORAD_CAT_ID":51636,"ELEMENT_SET_NO":999,"REV_AT_EPOCH":18089,"BSTAR":0.00013530371,"MEAN_MOTION_DOT":6.5e-7,"MEAN_MOTION_DDOT":0},{"OBJECT_NAME":"ONEWEB-0443","OBJECT_ID":"2022-012R","EPOCH":"2025-10-11T07:19:34.038912","MEAN_MOTION":13.17647595,"ECCENTRICITY":0.00014457,"INCLINATION":87.909,"RA_OF_ASC_NODE":55.3861,"ARG_OF_PERICENTER":89.013,"MEAN_ANOMALY":271.1167,"EPHEMERIS_TYPE":0,"CLASSIFICATION_TYPE":"U","NORAD_CAT_ID":51637,"ELEMENT_SET_NO":999,"REV_AT_EPOCH":18094,"BSTAR":0.0002266637,"MEAN_MOTION_DOT":1.01e-6,"MEAN_MOTION_DDOT":0},{"OBJECT_NAME":"ONEWEB-0444","OBJECT_ID":"2022-012S","EPOCH":"2025-10-11T04:05:31.978464","MEAN_MOTION":13.10369455,"ECCENTRICITY":0.00015627,"INCLINATION":87.8747,"RA_OF_ASC_NODE":85.9217,"ARG_OF_PERICENTER":93.4298,"MEAN_ANOMALY":266.7008,"EPHEMERIS_TYPE":0,"CLASSIFICATION_TYPE":"U","NORAD_CAT_ID":51638,"ELEMENT_SET_NO":999,"REV_AT_EPOCH":17672,"BSTAR":-0.0015674148,"MEAN_MOTION_DOT":-5.34e-6,"MEAN_MOTION_DDOT":0},{"OBJECT_NAME":"ONEWEB-0445","OBJECT_ID":"2022-012T","EPOCH":"2025-10-11T04:36:38.568384","MEAN_MOTION":13.10373842,"ECCENTRICITY":0.00018054,"INCLINATION":87.8767,"RA_OF_ASC_NODE":85.8746,"ARG_OF_PERICENTER":89.9702,"MEAN_ANOMALY":270.1633,"EPHEMERIS_TYPE":0,"CLASSIFICATION_TYPE":"U","NORAD_CAT_ID":51639,"ELEMENT_SET_NO":999,"REV_AT_EPOCH":17673,"BSTAR":-3.0490579e-5,"MEAN_MOTION_DOT":2.0e-8,"MEAN_MOTION_DDOT":0},{"OBJECT_NAME":"ONEWEB-0446","OBJECT_ID":"2022-012U","EPOCH":"2025-10-11T04:03:11.132640","MEAN_MOTION":13.10370632,"ECCENTRICITY":0.00018422,"INCLINATION":87.875,"RA_OF_ASC_NODE":85.9381,"ARG_OF_PERICENTER":93.5131,"MEAN_ANOMALY":266.6207,"EPHEMERIS_TYPE":0,"CLASSIFICATION_TYPE":"U","NORAD_CAT_ID":51640,"ELEMENT_SET_NO":999,"REV_AT_EPOCH":17671,"BSTAR":-0.0016397132,"MEAN_MOTION_DOT":-5.6e-6,"MEAN_MOTION_DDOT":0},{"OBJECT_NAME":"ONEWEB-0448","OBJECT_ID":"2022-012V","EPOCH":"2025-10-10T17:10:37.328448","MEAN_MOTION":13.10373275,"ECCENTRICITY":0.00015496,"INCLINATION":87.875,"RA_OF_ASC_NODE":86.0286,"ARG_OF_PERICENTER":92.6668,"MEAN_ANOMALY":267.4636,"EPHEMERIS_TYPE":0,"CLASSIFICATION_TYPE":"U","NORAD_CAT_ID":51641,"ELEMENT_SET_NO":999,"REV_AT_EPOCH":17662,"BSTAR":-0.0017480634,"MEAN_MOTION_DOT":-5.98e-6,"MEAN_MOTION_DDOT":0},{"OBJECT_NAME":"ONEWEB-0449","OBJECT_ID":"2022-012W","EPOCH":"2025-10-11T04:17:31.380288","MEAN_MOTION":13.1037366,"ECCENTRICITY":0.00015246,"INCLINATION":87.875,"RA_OF_ASC_NODE":85.9063,"ARG_OF_PERICENTER":74.0292,"MEAN_ANOMALY":286.1004,"EPHEMERIS_TYPE":0,"CLASSIFICATION_TYPE":"U","NORAD_CAT_ID":51642,"ELEMENT_SET_NO":999,"REV_AT_EPOCH":17669,"BSTAR":-0.0018736988,"MEAN_MOTION_DOT":-6.41e-6,"MEAN_MOTION_DDOT":0},{"OBJECT_NAME":"ONEWEB-0451","OBJECT_ID":"2022-012X","EPOCH":"2025-10-11T06:57:43.032960","MEAN_MOTION":13.17647908,"ECCENTRICITY":0.000163,"INCLINATION":87.9095,"RA_OF_ASC_NODE":55.3238,"ARG_OF_PERICENTER":92.6639,"MEAN_ANOMALY":267.468,"EPHEMERIS_TYPE":0,"CLASSIFICATION_TYPE":"U","NORAD_CAT_ID":51643,"ELEMENT_SET_NO":999,"REV_AT_EPOCH":18088,"BSTAR":-5.9796614e-5,"MEAN_MOTION_DOT":-1.0e-7,"MEAN_MOTION_DDOT":0},{"OBJECT_NAME":"ONEWEB-0452","OBJECT_ID":"2022-012Y","EPOCH":"2025-10-11T06:55:15.595680","MEAN_MOTION":13.17661268,"ECCENTRICITY":0.00015706,"INCLINATION":87.9087,"RA_OF_ASC_NODE":55.3842,"ARG_OF_PERICENTER":89.3195,"MEAN_ANOMALY":270.8116,"EPHEMERIS_TYPE":0,"CLASSIFICATION_TYPE":"U","NORAD_CAT_ID":51644,"ELEMENT_SET_NO":999,"REV_AT_EPOCH":18089,"BSTAR":0.0016448079,"MEAN_MOTION_DOT":6.52e-6,"MEAN_MOTION_DDOT":0}]
