ONEWEB-0425             
1 51628U 22012G   25284.18215711 -.00000643  00000+0 -18785-2 0  9991
2 51628  87.8751  85.9035 0001546  78.7612 281.3689 13.10375097176712
ONEWEB-0428             
1 51629U 22012H   25283.70409741 -.00000434  00000+0 -12807-2 0  9994
2 51629  87.8746  86.0203 0001574  98.9112 261.2193 13.10369599176612
ONEWEB-0431             
1 51630U 22012J   25283.90317465  .00000701  00000+0  19712-2 0  9996
2 51630  87.8757  85.9547 0002037 107.4592 252.6758 13.10373572176693
ONEWEB-0434             
1 51631U 22012K   25284.18547652 -.00000473  00000+0 -13919-2 0  9992
2 51631  87.8754  85.9388 0001523  67.6233 292.5056 13.10376401176713
ONEWEB-0435             
1 51632U 22012L   25284.19378769 -.00000011  00000+0 -67669-4 0  9996
2 51632  87.8752  85.9280 0001381 104.0412 256.0869 13.10376740176702
ONEWEB-0436             
1 51633U 22012M   25284.29346600  .00000110  00000+0  24901-3 0  9996
2 51633  87.9099  55.3291 0001663 105.8654 254.2661 13.17649623180908
ONEWEB-0438             
1 51634U 22012N   25284.17717537 -.00000897  00000+0 -26054-2 0  9999
2 51634  87.8744  85.9313 0001642  85.2523 274.8792 13.10373579176738
ONEWEB-0439             
1 51635U 22012P   25283.72235286 -.00000655  00000+0 -19114-2 0  9997
2 51635  87.8750  86.0115 0001546  91.6764 268.4540 13.10374597176651
ONEWEB-0442             
1 51636U 22012Q   25284.28584828  .00000065  00000+0  13530-3 0  9999
2 51636  87.9090  55.3832 0001963  79.3204 280.8149 13.17651749180898
ONEWEB-0443             
1 51637U 22012R   25284.30525508  .00000101  00000+0  22666-3 0  9994
2 51637  87.9090  55.3861 0001445  89.0130 271.1167 13.17647595180945
ONEWEB-0444             
1 51638U 22012S   25284.17050901 -.00000534  00000+0 -15674-2 0  9992
2 51638  87.8747  85.9217 0001562  93.4298 266.7008 13.10369455176726
ONEWEB-0445             
1 51639U 22012T   25284.19211306  .00000002  00000+0 -30491-4 0  9998
2 51639  87.8767  85.8746 0001805  89.9702 270.1633 13.10373842176734
ONEWEB-0446             
1 51640U 22012U   25284.16887885 -.00000560  00000+0 -16397-2 0  9995
2 51640  87.8750  85.9381 0001842  93.5131 266.6207 13.10370632176711
ONEWEB-0448             
1 51641U 22012V   25283.71570982 -.00000598  00000+0 -17481-2 0  9999
2 51641  87.8750  86.0286 0001549  92.6668 267.4636 13.10373275176628
ONEWEB-0449             
1 51642U 22012W   25284.17883542 -.00000641  00000+0 -18737-2 0  9994
2 51642  87.8750  85.9063 0001524  74.0292 286.1004 13.10373660176692
ONEWEB-0451             
1 51643U 22012X   25284.29008140 -.00000010  00000+0 -59797-4 0  9994
2 51643  87.9095  55.3238 0001630  92.6639 267.4680 13.17647908180884
ONEWEB-0452             
1 51644U 22012Y   25284.28837495  .00000652  00000+0  16448-2 0  9991
2 51644  87.9087  55.3842 0001570  89.3195 270.8116 13.17661268180898
